satname,norad_id,inclination_deg,eccentricity,mean_motion_rev_per_day,perigee_km,apogee_km,l1,l2
STARLINK-1567,46038,53.0895,0.0001229,15.41103542,442.01285913487936,443.6894580242579,1 46038U 20055M   26080.58334491  .01435678  00000+0  30961-1 0  9999,2 46038  53.0895  71.1036 0001229  72.5042 130.6680 15.41103542  5785
STARLINK-1569,46039,53.1603,0.0001631,15.30194343,474.1141757762625,476.3497447310974,1 46039U 20055N   26080.58334491 -.00010076  00000+0 -32855-3 0  9998,2 46039  53.1603  71.4590 0001631  93.8307 283.5721 15.30194343  5836
STARLINK-1582,46043,53.1604,0.0001288,15.30218037,474.27850990746174,476.04391952757214,1 46043U 20055S   26080.25995146  .00010661  00000+0  37135-3 0  9991,2 46043  53.1604  72.9506 0001288  76.3733 283.7411 15.30218037310656
STARLINK-1591,46045,53.1552,0.0001735,15.29390914,476.4424434153343,478.8213952303404,1 46045U 20055U   26080.58334491 -.00017247  00000+0 -58607-3 0  9995,2 46045  53.1552  71.4548 0001735  73.2042 126.7373 15.29390914  5877
STARLINK-1524,46047,53.1614,0.0001226,15.30210064,474.34480301437634,476.02523757375275,1 46047U 20055W   26080.21514567  .00004244  00000+0  15529-3 0  9998,2 46047  53.1614  60.3030 0001226  89.1683 270.9458 15.30210064310833
STARLINK-1527,46048,53.16,0.0001278,15.30216751,474.28920240641673,476.0409064115247,1 46048U 20055X   26080.22147665  .00012391  00000+0  42958-3 0  9999,2 46048  53.1600  60.3729 0001278  95.5331 264.5815 15.30216751310815
STARLINK-1540,46051,53.1601,0.0001244,15.30208217,474.33798110287626,476.04308899359694,1 46051U 20055AA  26080.17932456  .00001533  00000+0  63847-4 0  9994,2 46051  53.1601  60.4744 0001244 101.0268 259.0873 15.30208217310847
STARLINK-1541,46052,53.159,0.0001462,15.30212341,474.1762669800428,476.18017635085835,1 46052U 20055AB  26080.23411568  .00004017  00000+0  14763-3 0  9990,2 46052  53.1590  60.2625 0001462  93.7164 266.4004 15.30212341310813
STARLINK-1543,46053,53.1602,0.0001537,15.30207934,474.1380234557837,476.24473659980504,1 46053U 20055AC  26080.24044125  .00004499  00000+0  16391-3 0  9996,2 46053  53.1602  60.2589 0001537  97.0218 263.0957 15.30207934310842
STARLINK-1548,46054,53.16,0.0001414,15.30219442,474.1879639520057,476.1260755007834,1 46054U 20055AD  26080.18249953  .00004456  00000+0  16238-3 0  9999,2 46054  53.1600  60.5280 0001414  94.2424 265.8738 15.30219442310837
STARLINK-1554,46055,53.1622,0.0001376,15.30188909,474.3051595446768,476.19121114768404,1 46055U 20055AE  26080.24573545 -.00000360  00000+0 -24698-7 0  9999,2 46055  53.1622  60.3563 0001376  95.8425 264.2733 15.30188909310841
STARLINK-1564,46058,53.1608,0.000152,15.30209155,474.1460290161831,476.2294397354335,1 46058U 20055AH  26080.24366764  .00001091  00000+0  48957-4 0  9996,2 46058  53.1608  60.7027 0001520  90.7207 269.3968 15.30209155310832
STARLINK-1570,46059,53.1616,0.0001269,15.30184718,474.3910029284607,476.1303952644912,1 46059U 20055AJ  26080.20779903  .00003462  00000+0  12900-3 0  9998,2 46059  53.1616  60.4096 0001269  98.0840 262.0305 15.30184718310796
STARLINK-1572,46060,53.1593,0.000119,15.30208458,474.3742695811716,476.00536136325445,1 46060U 20055AK  26080.22467360  .00011108  00000+0  38649-3 0  9997,2 46060  53.1593  60.5365 0001190  80.8727 279.2409 15.30208458310803
STARLINK-1573,46061,53.1623,0.0001359,15.30206905,474.2630846671036,476.1258201558694,1 46061U 20055AL  26080.19196762  .00000285  00000+0  21739-4 0  9996,2 46061  53.1623  60.4352 0001359  89.8479 270.2678 15.30206905310830
STARLINK-1577,46063,53.1612,0.0001296,15.30196349,474.33777482790356,476.1141665099003,1 46063U 20055AN  26080.21831719  .00010019  00000+0  34998-3 0  9995,2 46063  53.1612  60.2838 0001296  88.8148 271.3001 15.30196349310831
STARLINK-1583,46064,53.1606,0.0001794,15.30213055,473.94660545131956,476.4055741879465,1 46064U 20055AP  26080.18881675  .00015324  00000+0  52822-3 0  9998,2 46064  53.1606  60.4535 0001794  88.1725 271.9481 15.30213055310829
STARLINK-1525,46066,53.0549,0.0001213,15.27413451,482.7155266044674,484.3801713488292,1 46066U 20055AR  26080.58334491  .00883147  00000+0  30180-1 0  9990,2 46066  53.0549  41.8984 0001213  92.0936 241.2173 15.27413451  5783
STARLINK-1536,46070,53.0557,0.0001401,15.06399062,546.2441910389416,548.1846745104049,1 46070U 20055AV  26080.16177158  .00000733  00000+0  68119-4 0  9992,2 46070  53.0557  45.1186 0001401  88.0993 272.0157 15.06399062311046
STARLINK-1542,46073,53.0569,0.0001432,15.06405344,546.2034718282839,548.1868869644622,1 46073U 20055AY  26080.22073698  .00001992  00000+0  15257-3 0  9998,2 46073  53.0569  44.8541 0001432  92.8890 267.2263 15.06405344311041
STARLINK-1549,46074,53.0557,0.0001423,15.06404134,546.2134125558168,548.1843631494994,1 46074U 20055AZ  26080.20599256  .00000838  00000+0  75158-4 0  9995,2 46074  53.0557  44.9192 0001423  86.1672 273.9480 15.06404134311036
STARLINK-1551,46075,53.0557,0.0001336,15.0640396,546.2741961893471,548.1246460810744,1 46075U 20055BA  26080.16545864  .00001820  00000+0  14100-3 0  9998,2 46075  53.0557  45.1021 0001336  88.9648 271.1494 15.06403960311038
STARLINK-1552,46076,53.0572,0.0001417,15.06399063,546.233107412224,548.1957520074029,1 46076U 20055BB  26080.58933498 -.00000688  00000+0 -27314-4 0  9994,2 46076  53.0572  43.1985 0001417  92.9148 267.2003 15.06399063311088
STARLINK-1559,46077,53.0266,0.0004429,15.30694389,470.70461428774615,476.77400632341505,1 46077U 20055BC  26080.12103246  .00034626  00000+0  11576-2 0  9993,2 46077  53.0266  20.6808 0004429  79.4138 280.7360 15.30694389311338
STARLINK-1566,46079,53.0558,0.0001554,15.06408503,546.1093024743923,548.2616927066429,1 46079U 20055BE  26080.60776959  .00004128  00000+0  29581-3 0  9995,2 46079  53.0558  43.1160 0001554  92.1021 268.0146 15.06408503311104
STARLINK-1568,46080,53.0624,0.0006056,15.47349158,420.36460309170616,428.6039379745771,1 46080U 20055BF  26079.92880497  .00035446  00000+0  68740-3 0  9990,2 46080  53.0624 339.3025 0006056 151.5265 208.6074 15.47349158311938
STARLINK-1578,46082,53.0557,0.0001292,15.06399785,546.3174617635696,548.106972001212,1 46082U 20055BH  26080.09173815  .00000006  00000+0  19278-4 0  9998,2 46082  53.0557  45.4330 0001292  88.1383 271.9754 15.06399785311026
STARLINK-1579,46083,53.0566,0.0001421,15.06399263,546.2297243869925,548.1979090891091,1 46083U 20055BJ  26080.59207319  .00000729  00000+0  67807-4 0  9994,2 46083  53.0566  43.1770 0001421  94.4601 265.6550 15.06399263311099
